{"type": "FeatureCollection", "features": [ {"type": "Feature", "properties": {"norad_id": 36045, "name": "COSMOS 2251 DEB", "group": "cosmos-2251-debris", "lat": 55.872669282945665, "lon": 85.3769896401035, "alt_km": 622.9654602689589, "timestamp": "2025-12-12T07:43:20.912909+00:00", "meta": {"OBJECT_NAME": "COSMOS 2251 DEB", "OBJECT_ID": "1993-036AXG", "EPOCH": "2025-12-11T13:29:08.197152", "MEAN_MOTION": 14.69806465, "ECCENTRICITY": 0.00482484, "INCLINATION": 73.7636, "RA_OF_ASC_NODE": 61.4081, "ARG_OF_PERICENTER": 75.4727, "MEAN_ANOMALY": 285.1788, "EPHEMERIS_TYPE": 0, "CLASSIFICATION_TYPE": "U", "NORAD_CAT_ID": 36045, "ELEMENT_SET_NO": 999, "REV_AT_EPOCH": 8371, "BSTAR": 0.0031629771, "MEAN_MOTION_DOT": 0.00019249, "MEAN_MOTION_DDOT": 0}, "tle": {"line1": "1 36045U 93036AXG 25345.56190043  .00019249  00000+0  31630-2 0  9995", "line2": "2 36045  73.7636  61.4081 0048248  75.4727 285.1788 14.69806465 83717"}}, "geometry": {"type": "Point", "coordinates": [85.3769896401035, 55.872669282945665]}}, {"type": "Feature", "properties": {"norad_id": 36046, "name": "COSMOS 2251 DEB", "group": "cosmos-2251-debris", "lat": 49.12917029526398, "lon": 77.96064800086155, "alt_km": 654.4823809329082, "timestamp": "2025-12-12T07:43:20.912919+00:00", "meta": {"OBJECT_NAME": "COSMOS 2251 DEB", "OBJECT_ID": "1993-036AXH", "EPOCH": "2025-12-11T13:55:44.742144", "MEAN_MOTION": 14.65256502, "ECCENTRICITY": 0.00555409, "INCLINATION": 74.0167, "RA_OF_ASC_NODE": 278.7315, "ARG_OF_PERICENTER": 65.0167, "MEAN_ANOMALY": 113.2928, "EPHEMERIS_TYPE": 0, "CLASSIFICATION_TYPE": "U", "NORAD_CAT_ID": 36046, "ELEMENT_SET_NO": 999, "REV_AT_EPOCH": 63986, "BSTAR": 0.001021587, "MEAN_MOTION_DOT": 5.605e-05, "MEAN_MOTION_DDOT": 0}, "tle": {"line1": "1 36046U 93036AXH 25345.58037896  .00005605  00000+0  10216-2 0  9992", "line2": "2 36046  74.0167 278.7315 0055540  65.0167 113.2928 14.65256502639867"}}, "geometry": {"type": "Point", "coordinates": [77.96064800086155, 49.12917029526398]}}, {"type": "Feature", "properties": {"norad_id": 36047, "name": "COSMOS 2251 DEB", "group": "cosmos-2251-debris", "lat": 12.503377786222941, "lon": -21.35841799607593, "alt_km": 574.8396179864512, "timestamp": "2025-12-12T07:43:20.912930+00:00", "meta": {"OBJECT_NAME": "COSMOS 2251 DEB", "OBJECT_ID": "1993-036AXJ", "EPOCH": "2025-12-11T05:58:59.566656", "MEAN_MOTION": 14.95837806, "ECCENTRICITY": 0.00082013, "INCLINATION": 74.036, "RA_OF_ASC_NODE": 337.1667, "ARG_OF_PERICENTER": 3.2203, "MEAN_ANOMALY": 356.9033, "EPHEMERIS_TYPE": 0, "CLASSIFICATION_TYPE": "U", "NORAD_CAT_ID": 36047, "ELEMENT_SET_NO": 999, "REV_AT_EPOCH": 65917, "BSTAR": 0.0036964515, "MEAN_MOTION_DOT": 0.00041538, "MEAN_MOTION_DDOT": 0}, "tle": {"line1": "1 36047U 93036AXJ 25345.24930054  .00041538  00000+0  36965-2 0  9998", "line2": "2 36047  74.0360 337.1667 0008201   3.2203 356.9033 14.95837806659174"}}, "geometry": {"type": "Point", "coordinates": [-21.35841799607593, 12.503377786222941]}}, {"type": "Feature", "properties": {"norad_id": 36048, "name": "COSMOS 2251 DEB", "group": "cosmos-2251-debris", "lat": 28.56272586961903, "lon": -50.99273743773552, "alt_km": 749.3762338814113, "timestamp": "2025-12-12T07:43:20.912940+00:00", "meta": {"OBJECT_NAME": "COSMOS 2251 DEB", "OBJECT_ID": "1993-036AXK", "EPOCH": "2025-12-10T07:51:23.656896", "MEAN_MOTION": 14.3784538, "ECCENTRICITY": 0.0026514, "INCLINATION": 74.0571, "RA_OF_ASC_NODE": 303.7212, "ARG_OF_PERICENTER": 354.2337, "MEAN_ANOMALY": 156.0655, "EPHEMERIS_TYPE": 0, "CLASSIFICATION_TYPE": "U", "NORAD_CAT_ID": 36048, "ELEMENT_SET_NO": 999, "REV_AT_EPOCH": 85467, "BSTAR": 0.00048763, "MEAN_MOTION_DOT": 1.45e-05, "MEAN_MOTION_DDOT": 0}, "tle": {"line1": "1 36048U 93036AXK 25344.32735714  .00001450  00000+0  48763-3 0  9992", "line2": "2 36048  74.0571 303.7212 0026514 354.2337 156.0655 14.37845380854671"}}, "geometry": {"type": "Point", "coordinates": [-50.99273743773552, 28.56272586961903]}}, {"type": "Feature", "properties": {"norad_id": 36049, "name": "COSMOS 2251 DEB", "group": "cosmos-2251-debris", "lat": 71.67507091765344, "lon": -119.8567225785604, "alt_km": 681.1893266837787, "timestamp": "2025-12-12T07:43:20.912950+00:00", "meta": {"OBJECT_NAME": "COSMOS 2251 DEB", "OBJECT_ID": "1993-036AXL", "EPOCH": "2025-12-10T15:51:32.776128", "MEAN_MOTION": 14.62096087, "ECCENTRICITY": 0.0010896, "INCLINATION": 74.0301, "RA_OF_ASC_NODE": 123.1637, "ARG_OF_PERICENTER": 209.0948, "MEAN_ANOMALY": 150.9613, "EPHEMERIS_TYPE": 0, "CLASSIFICATION_TYPE": "U", "NORAD_CAT_ID": 36049, "ELEMENT_SET_NO": 999, "REV_AT_EPOCH": 85334, "BSTAR": 0.0024714, "MEAN_MOTION_DOT": 0.00012422, "MEAN_MOTION_DDOT": 0}, "tle": {"line1": "1 36049U 93036AXL 25344.66079602  .00012422  00000+0  24714-2 0  9997", "line2": "2 36049  74.0301 123.1637 0010896 209.0948 150.9613 14.62096087853349"}}, "geometry": {"type": "Point", "coordinates": [-119.8567225785604, 71.67507091765344]}}, {"type": "Feature", "properties": {"norad_id": 36050, "name": "COSMOS 2251 DEB", "group": "cosmos-2251-debris", "lat": 63.266927266624634, "lon": -19.768834971278732, "alt_km": 616.1338989188735, "timestamp": "2025-12-12T07:43:20.912961+00:00", "meta": {"OBJECT_NAME": "COSMOS 2251 DEB", "OBJECT_ID": "1993-036AXM", "EPOCH": "2025-12-10T07:13:56.773056", "MEAN_MOTION": 15.00978663, "ECCENTRICITY": 0.0088905, "INCLINATION": 74.0317, "RA_OF_ASC_NODE": 198.9901, "ARG_OF_PERICENTER": 279.1661, "MEAN_ANOMALY": 79.9477, "EPHEMERIS_TYPE": 0, "CLASSIFICATION_TYPE": "U", "NORAD_CAT_ID": 36050, "ELEMENT_SET_NO": 999, "REV_AT_EPOCH": 66998, "BSTAR": 0.00072759, "MEAN_MOTION_DOT": 0.00010072, "MEAN_MOTION_DDOT": 0}, "tle": {"line1": "1 36050U 93036AXM 25344.30135154  .00010072  00000+0  72759-3 0  9997", "line2": "2 36050  74.0317 198.9901 0088905 279.1661  79.9477 15.00978663669983"}}, "geometry": {"type": "Point", "coordinates": [-19.768834971278732, 63.266927266624634]}}, {"type": "Feature", "properties": {"norad_id": 36053, "name": "COSMOS 2251 DEB", "group": "cosmos-2251-debris", "lat": 73.0114588174082, "lon": -135.21452553924374, "alt_km": 672.9630664094011, "timestamp": "2025-12-12T07:43:20.912995+00:00", "meta": {"OBJECT_NAME": "COSMOS 2251 DEB", "OBJECT_ID": "1993-036AXQ", "EPOCH": "2025-12-11T04:58:23.978208", "MEAN_MOTION": 14.57140562, "ECCENTRICITY": 0.00327217, "INCLINATION": 73.8707, "RA_OF_ASC_NODE": 155.6255, "ARG_OF_PERICENTER": 105.2399, "MEAN_ANOMALY": 255.2386, "EPHEMERIS_TYPE": 0, "CLASSIFICATION_TYPE": "U", "NORAD_CAT_ID": 36053, "ELEMENT_SET_NO": 999, "REV_AT_EPOCH": 87422, "BSTAR": 0.0024734294, "MEAN_MOTION_DOT": 0.00011225, "MEAN_MOTION_DDOT": 0}, "tle": {"line1": "1 36053U 93036AXQ 25345.20722197  .00011225  00000+0  24734-2 0  9999", "line2": "2 36053  73.8707 155.6255 0032721 105.2399 255.2386 14.57140562874223"}}, "geometry": {"type": "Point", "coordinates": [-135.21452553924374, 73.0114588174082]}}, {"type": "Feature", "properties": {"norad_id": 36058, "name": "COSMOS 2251 DEB", "group": "cosmos-2251-debris", "lat": -28.167444588988435, "lon": -136.9184239232658, "alt_km": 678.7674894922775, "timestamp": "2025-12-12T07:43:20.913006+00:00", "meta": {"OBJECT_NAME": "COSMOS 2251 DEB", "OBJECT_ID": "1993-036AXV", "EPOCH": "2025-12-09T21:09:28.031616", "MEAN_MOTION": 14.58669067, "ECCENTRICITY": 0.00447805, "INCLINATION": 74.0233, "RA_OF_ASC_NODE": 38.9054, "ARG_OF_PERICENTER": 173.9779, "MEAN_ANOMALY": 186.1934, "EPHEMERIS_TYPE": 0, "CLASSIFICATION_TYPE": "U", "NORAD_CAT_ID": 36058, "ELEMENT_SET_NO": 999, "REV_AT_EPOCH": 66069, "BSTAR": 0.00079291916, "MEAN_MOTION_DOT": 3.72e-05, "MEAN_MOTION_DDOT": 0}, "tle": {"line1": "1 36058U 93036AXV 25343.88157444  .00003720  00000+0  79292-3 0  9994", "line2": "2 36058  74.0233  38.9054 0044780 173.9779 186.1934 14.58669067660699"}}, "geometry": {"type": "Point", "coordinates": [-136.9184239232658, -28.167444588988435]}}, {"type": "Feature", "properties": {"norad_id": 36060, "name": "COSMOS 2251 DEB", "group": "cosmos-2251-debris", "lat": 41.05831723693735, "lon": 40.897574661396895, "alt_km": 758.7061557726902, "timestamp": "2025-12-12T07:43:20.913017+00:00", "meta": {"OBJECT_NAME": "COSMOS 2251 DEB", "OBJECT_ID": "1993-036AXX", "EPOCH": "2025-12-09T10:49:25.276800", "MEAN_MOTION": 14.41988994, "ECCENTRICITY": 0.00151666, "INCLINATION": 74.0292, "RA_OF_ASC_NODE": 240.6647, "ARG_OF_PERICENTER": 338.0669, "MEAN_ANOMALY": 21.9836, "EPHEMERIS_TYPE": 0, "CLASSIFICATION_TYPE": "U", "NORAD_CAT_ID": 36060, "ELEMENT_SET_NO": 999, "REV_AT_EPOCH": 84962, "BSTAR": 0.00059597173, "MEAN_MOTION_DOT": 1.931e-05, "MEAN_MOTION_DDOT": 0}, "tle": {"line1": "1 36060U 93036AXX 25343.45098700  .00001931  00000+0  59597-3 0  9997", "line2": "2 36060  74.0292 240.6647 0015166 338.0669  21.9836 14.41988994849629"}}, "geometry": {"type": "Point", "coordinates": [40.897574661396895, 41.05831723693735]}}, {"type": "Feature", "properties": {"norad_id": 36061, "name": "COSMOS 2251 DEB", "group": "cosmos-2251-debris", "lat": -28.47243558487393, "lon": -8.40920898438224, "alt_km": 797.360195062618, "timestamp": "2025-12-12T07:43:20.913027+00:00", "meta": {"OBJECT_NAME": "COSMOS 2251 DEB", "OBJECT_ID": "1993-036AXY", "EPOCH": "2025-12-08T08:24:20.190816", "MEAN_MOTION": 14.33698686, "ECCENTRICITY": 0.00368149, "INCLINATION": 74.0243, "RA_OF_ASC_NODE": 7.7948, "ARG_OF_PERICENTER": 97.1574, "MEAN_ANOMALY": 263.3766, "EPHEMERIS_TYPE": 0, "CLASSIFICATION_TYPE": "U", "NORAD_CAT_ID": 36061, "ELEMENT_SET_NO": 999, "REV_AT_EPOCH": 65041, "BSTAR": 0.00050814435, "MEAN_MOTION_DOT": 1.395e-05, "MEAN_MOTION_DDOT": 0}, "tle": {"line1": "1 36061U 93036AXY 25342.35023369  .00001395  00000+0  50814-3 0  9992", "line2": "2 36061  74.0243   7.7948 0036814  97.1574 263.3766 14.33698686650411"}}, "geometry": {"type": "Point", "coordinates": [-8.40920898438224, -28.47243558487393]}}]}